STARLINK-2019           
1 47641U 21012X   25210.41904068 -.00001163  00000+0 -59227-4 0  9991
2 47641  53.0549 258.9200 0000949  79.8032 280.3064 15.06405063247643
STARLINK-2022           
1 47643U 21012Z   25210.61657562  .00034612  00000+0  13813-2 0  9991
2 47643  53.0356 327.2804 0005104 266.1461  93.8952 15.24863635246203
STARLINK-2031           
1 47648U 21012AE  25210.64250399  .00003874  00000+0  27895-3 0  9998
2 47648  53.0551 332.9171 0001358  95.3739 264.7405 15.06383800246654
STARLINK-2032           
1 47649U 21012AF  25210.64618919 -.00000760  00000+0 -32122-4 0  9998
2 47649  53.0567 332.9009 0001431  99.8834 260.2316 15.06394829246654
STARLINK-2033           
1 47650U 21012AG  25210.63144825  .00002487  00000+0  18578-3 0  9993
2 47650  53.0554 332.9647 0001377  82.3951 277.7195 15.06401081246631
STARLINK-2036           
1 47652U 21012AJ  25210.69132740 -.00012994  00000+0 -85591-3 0  9999
2 47652  53.0555 352.6870 0001241  94.6105 265.5026 15.06361273246375
STARLINK-2038           
1 47654U 21012AL  25211.15621851  .05949395  12236-4  87572-3 0  9996
2 47654  53.0291 264.2473 0006117 310.1536 139.2802 16.33708703247130
STARLINK-2039           
1 47655U 21012AM  25210.68857439  .00000722  00000+0  67354-4 0  9992
2 47655  53.0557 352.7074 0001281  92.8346 267.2790 15.06396375246376
STARLINK-2040           
1 47656U 21012AN  25210.63881879 -.00000248  00000+0  22393-5 0  9992
2 47656  53.0578 332.9369 0001410  94.7883 265.3267 15.06384235246648
STARLINK-2041           
1 47657U 21012AP  25210.71069184  .00000010  00000+0  19551-4 0  9996
2 47657  53.0562 352.6094 0001229  88.4591 271.6538 15.06392737246377
STARLINK-2043           
1 47659U 21012AR  25210.42424529  .00922530  47753-3  11043-2 0  9990
2 47659  53.0315 185.9380 0001646 333.3648 166.9856 16.07836855248151
STARLINK-2052           
1 47662U 21012AU  25210.61231641  .00053394  00000+0  19225-2 0  9999
2 47662  53.0542 329.1689 0002637 304.3121  55.7628 15.28083931246708
STARLINK-2058           
1 47667U 21012AZ  25210.61486028 -.00000218  00000+0  42413-5 0  9991
2 47667  53.0563 353.0395 0001394  91.8905 268.2243 15.06391207246341
STARLINK-2065           
1 47672U 21012BE  25210.63236116 -.00000752  00000+0 -31637-4 0  9999
2 47672  53.0552 322.9641 0001157  85.0000 275.1121 15.06391900246760
STARLINK-2083           
1 47676U 21012BJ  25210.74478353 -.00000278  00000+0  24223-6 0  9993
2 47676  53.0535 222.4544 0001111  84.4853 275.6263 15.06397896248180
STARLINK-2095           
1 47679U 21012BM  25210.60128597  .00033631  00000+0  12071-2 0  9995
2 47679  53.0491 331.6548 0002594 284.0410  76.0300 15.28401154246678
