[{"OBJECT_NAME":"STARLINK-2019","OBJECT_ID":"2021-012X","EPOCH":"2025-07-29T10:03:25.114752","MEAN_MOTION":15.06405063,"ECCENTRICITY":9.49e-5,"INCLINATION":53.0549,"RA_OF_ASC_NODE":258.92,"ARG_OF_PERICENTER":79.8032,"MEAN_ANOMALY":280.3064,"EPHEMERIS_TYPE":0,"CLASSIFICATION_TYPE":"U","NORAD_CAT_ID":47641,"ELEMENT_SET_NO":999,"REV_AT_EPOCH":24764,"BSTAR":-5.9227e-5,"MEAN_MOTION_DOT":-1.163e-5,"MEAN_MOTION_DDOT":0},{"OBJECT_NAME":"STARLINK-2022","OBJECT_ID":"2021-012Z","EPOCH":"2025-07-29T14:47:52.133568","MEAN_MOTION":15.24863635,"ECCENTRICITY":0.0005104,"INCLINATION":53.0356,"RA_OF_ASC_NODE":327.2804,"ARG_OF_PERICENTER":266.1461,"MEAN_ANOMALY":93.8952,"EPHEMERIS_TYPE":0,"CLASSIFICATION_TYPE":"U","NORAD_CAT_ID":47643,"ELEMENT_SET_NO":999,"REV_AT_EPOCH":24620,"BSTAR":0.0013813,"MEAN_MOTION_DOT":0.00034612,"MEAN_MOTION_DDOT":0},{"OBJECT_NAME":"STARLINK-2031","OBJECT_ID":"2021-012AE","EPOCH":"2025-07-29T15:25:12.344736","MEAN_MOTION":15.063838,"ECCENTRICITY":0.0001358,"INCLINATION":53.0551,"RA_OF_ASC_NODE":332.9171,"ARG_OF_PERICENTER":95.3739,"MEAN_ANOMALY":264.7405,"EPHEMERIS_TYPE":0,"CLASSIFICATION_TYPE":"U","NORAD_CAT_ID":47648,"ELEMENT_SET_NO":999,"REV_AT_EPOCH":24665,"BSTAR":0.00027895,"MEAN_MOTION_DOT":3.874e-5,"MEAN_MOTION_DDOT":0},{"OBJECT_NAME":"STARLINK-2032","OBJECT_ID":"2021-012AF","EPOCH":"2025-07-29T15:30:30.746016","MEAN_MOTION":15.06394829,"ECCENTRICITY":0.0001431,"INCLINATION":53.0567,"RA_OF_ASC_NODE":332.9009,"ARG_OF_PERICENTER":99.8834,"MEAN_ANOMALY":260.2316,"EPHEMERIS_TYPE":0,"CLASSIFICATION_TYPE":"U","NORAD_CAT_ID":47649,"ELEMENT_SET_NO":999,"REV_AT_EPOCH":24665,"BSTAR":-3.2122e-5,"MEAN_MOTION_DOT":-7.6e-6,"MEAN_MOTION_DDOT":0},{"OBJECT_NAME":"STARLINK-2033","OBJECT_ID":"2021-012AG","EPOCH":"2025-07-29T15:09:17.128800","MEAN_MOTION":15.06401081,"ECCENTRICITY":0.0001377,"INCLINATION":53.0554,"RA_OF_ASC_NODE":332.9647,"ARG_OF_PERICENTER":82.3951,"MEAN_ANOMALY":277.7195,"EPHEMERIS_TYPE":0,"CLASSIFICATION_TYPE":"U","NORAD_CAT_ID":47650,"ELEMENT_SET_NO":999,"REV_AT_EPOCH":24663,"BSTAR":0.00018578,"MEAN_MOTION_DOT":2.487e-5,"MEAN_MOTION_DDOT":0},{"OBJECT_NAME":"STARLINK-2036","OBJECT_ID":"2021-012AJ","EPOCH":"2025-07-29T16:35:30.687360","MEAN_MOTION":15.06361273,"ECCENTRICITY":0.0001241,"INCLINATION":53.0555,"RA_OF_ASC_NODE":352.687,"ARG_OF_PERICENTER":94.6105,"MEAN_ANOMALY":265.5026,"EPHEMERIS_TYPE":0,"CLASSIFICATION_TYPE":"U","NORAD_CAT_ID":47652,"ELEMENT_SET_NO":999,"REV_AT_EPOCH":24637,"BSTAR":-0.00085591,"MEAN_MOTION_DOT":-0.00012994,"MEAN_MOTION_DDOT":0},{"OBJECT_NAME":"STARLINK-2038","OBJECT_ID":"2021-012AL","EPOCH":"2025-07-30T03:44:57.279264","MEAN_MOTION":16.33708703,"ECCENTRICITY":0.0006117,"INCLINATION":53.0291,"RA_OF_ASC_NODE":264.2473,"ARG_OF_PERICENTER":310.1536,"MEAN_ANOMALY":139.2802,"EPHEMERIS_TYPE":0,"CLASSIFICATION_TYPE":"U","NORAD_CAT_ID":47654,"ELEMENT_SET_NO":999,"REV_AT_EPOCH":24713,"BSTAR":0.00087572,"MEAN_MOTION_DOT":0.05949395,"MEAN_MOTION_DDOT":1.2236e-5},{"OBJECT_NAME":"STARLINK-2039","OBJECT_ID":"2021-012AM","EPOCH":"2025-07-29T16:31:32.827296","MEAN_MOTION":15.06396375,"ECCENTRICITY":0.0001281,"INCLINATION":53.0557,"RA_OF_ASC_NODE":352.7074,"ARG_OF_PERICENTER":92.8346,"MEAN_ANOMALY":267.279,"EPHEMERIS_TYPE":0,"CLASSIFICATION_TYPE":"U","NORAD_CAT_ID":47655,"ELEMENT_SET_NO":999,"REV_AT_EPOCH":24637,"BSTAR":6.7354e-5,"MEAN_MOTION_DOT":7.22e-6,"MEAN_MOTION_DDOT":0},{"OBJECT_NAME":"STARLINK-2040","OBJECT_ID":"2021-012AN","EPOCH":"2025-07-29T15:19:53.943456","MEAN_MOTION":15.06384235,"ECCENTRICITY":0.000141,"INCLINATION":53.0578,"RA_OF_ASC_NODE":332.9369,"ARG_OF_PERICENTER":94.7883,"MEAN_ANOMALY":265.3267,"EPHEMERIS_TYPE":0,"CLASSIFICATION_TYPE":"U","NORAD_CAT_ID":47656,"ELEMENT_SET_NO":999,"REV_AT_EPOCH":24664,"BSTAR":2.2393e-6,"MEAN_MOTION_DOT":-2.48e-6,"MEAN_MOTION_DDOT":0},{"OBJECT_NAME":"STARLINK-2041","OBJECT_ID":"2021-012AP","EPOCH":"2025-07-29T17:03:23.774976","MEAN_MOTION":15.06392737,"ECCENTRICITY":0.0001229,"INCLINATION":53.0562,"RA_OF_ASC_NODE":352.6094,"ARG_OF_PERICENTER":88.4591,"MEAN_ANOMALY":271.6538,"EPHEMERIS_TYPE":0,"CLASSIFICATION_TYPE":"U","NORAD_CAT_ID":47657,"ELEMENT_SET_NO":999,"REV_AT_EPOCH":24637,"BSTAR":1.9551e-5,"MEAN_MOTION_DOT":1.0e-7,"MEAN_MOTION_DDOT":0},{"OBJECT_NAME":"STARLINK-2043","OBJECT_ID":"2021-012AR","EPOCH":"2025-07-29T10:10:54.793056","MEAN_MOTION":16.07836855,"ECCENTRICITY":0.0001646,"INCLINATION":53.0315,"RA_OF_ASC_NODE":185.938,"ARG_OF_PERICENTER":333.3648,"MEAN_ANOMALY":166.9856,"EPHEMERIS_TYPE":0,"CLASSIFICATION_TYPE":"U","NORAD_CAT_ID":47659,"ELEMENT_SET_NO":999,"REV_AT_EPOCH":24815,"BSTAR":0.0011043,"MEAN_MOTION_DOT":0.0092253,"MEAN_MOTION_DDOT":0.00047753},{"OBJECT_NAME":"STARLINK-2052","OBJECT_ID":"2021-012AU","EPOCH":"2025-07-29T14:41:44.137824","MEAN_MOTION":15.28083931,"ECCENTRICITY":0.0002637,"INCLINATION":53.0542,"RA_OF_ASC_NODE":329.1689,"ARG_OF_PERICENTER":304.3121,"MEAN_ANOMALY":55.7628,"EPHEMERIS_TYPE":0,"CLASSIFICATION_TYPE":"U","NORAD_CAT_ID":47662,"ELEMENT_SET_NO":999,"REV_AT_EPOCH":24670,"BSTAR":0.0019225,"MEAN_MOTION_DOT":0.00053394,"MEAN_MOTION_DDOT":0},{"OBJECT_NAME":"STARLINK-2058","OBJECT_ID":"2021-012AZ","EPOCH":"2025-07-29T14:45:23.928192","MEAN_MOTION":15.06391207,"ECCENTRICITY":0.0001394,"INCLINATION":53.0563,"RA_OF_ASC_NODE":353.0395,"ARG_OF_PERICENTER":91.8905,"MEAN_ANOMALY":268.2243,"EPHEMERIS_TYPE":0,"CLASSIFICATION_TYPE":"U","NORAD_CAT_ID":47667,"ELEMENT_SET_NO":999,"REV_AT_EPOCH":24634,"BSTAR":4.2413e-6,"MEAN_MOTION_DOT":-2.18e-6,"MEAN_MOTION_DDOT":0},{"OBJECT_NAME":"STARLINK-2065","OBJECT_ID":"2021-012BE","EPOCH":"2025-07-29T15:10:36.004224","MEAN_MOTION":15.063919,"ECCENTRICITY":0.0001157,"INCLINATION":53.0552,"RA_OF_ASC_NODE":322.9641,"ARG_OF_PERICENTER":85,"MEAN_ANOMALY":275.1121,"EPHEMERIS_TYPE":0,"CLASSIFICATION_TYPE":"U","NORAD_CAT_ID":47672,"ELEMENT_SET_NO":999,"REV_AT_EPOCH":24676,"BSTAR":-3.1637e-5,"MEAN_MOTION_DOT":-7.52e-6,"MEAN_MOTION_DDOT":0},{"OBJECT_NAME":"STARLINK-2083","OBJECT_ID":"2021-012BJ","EPOCH":"2025-07-29T17:52:29.296992","MEAN_MOTION":15.06397896,"ECCENTRICITY":0.0001111,"INCLINATION":53.0535,"RA_OF_ASC_NODE":222.4544,"ARG_OF_PERICENTER":84.4853,"MEAN_ANOMALY":275.6263,"EPHEMERIS_TYPE":0,"CLASSIFICATION_TYPE":"U","NORAD_CAT_ID":47676,"ELEMENT_SET_NO":999,"REV_AT_EPOCH":24818,"BSTAR":2.4223e-7,"MEAN_MOTION_DOT":-2.78e-6,"MEAN_MOTION_DDOT":0},{"OBJECT_NAME":"STARLINK-2095","OBJECT_ID":"2021-012BM","EPOCH":"2025-07-29T14:25:51.107808","MEAN_MOTION":15.28401154,"ECCENTRICITY":0.0002594,"INCLINATION":53.0491,"RA_OF_ASC_NODE":331.6548,"ARG_OF_PERICENTER":284.041,"MEAN_ANOMALY":76.03,"EPHEMERIS_TYPE":0,"CLASSIFICATION_TYPE":"U","NORAD_CAT_ID":47679,"ELEMENT_SET_NO":999,"REV_AT_EPOCH":24667,"BSTAR":0.0012071,"MEAN_MOTION_DOT":0.00033631,"MEAN_MOTION_DDOT":0}]
